ONEWEB-0667             
1 55827U 23029AH  26154.31567023  .00000020  00000+0  18235-4 0  9992
2 55827  87.9191 277.1949 0001822  99.1302 261.0038 13.20771493159316
ONEWEB-0669             
1 55828U 23029AJ  26154.31061303  .00000047  00000+0  84649-4 0  9994
2 55828  87.9195 277.2059 0002383  94.2481 265.8925 13.20770840159313
ONEWEB-0670             
1 55829U 23029AK  26154.43497632  .00001317  00000+0  35180-2 0  9991
2 55829  87.8988 292.4816 0002187  96.4969 263.6410 13.14492551157620
ONEWEB-0671             
1 55830U 23029AL  26154.49227832  .00000236  00000+0  55641-3 0  9996
2 55830  87.9144 307.7055 0001664  95.0299 265.1023 13.19727806157099
ONEWEB-0672             
1 55831U 23029AM  26154.30555884  .00000100  00000+0  21407-3 0  9991
2 55831  87.9202 277.1999 0002149 108.0971 252.0397 13.20770462159317
ONEWEB-0673             
1 55832U 23029AN  26154.46939782  .00000062  00000+0  12336-3 0  9990
2 55832  87.9168 307.7007 0001772  90.3964 269.7372 13.19725766157091
ONEWEB-0674             
1 55833U 23029AP  26154.32714138 -.00000025  00000+0 -10310-3 0  9993
2 55833  87.8946 292.4804 0001826  91.2773 268.8566 13.14503282157590
ONEWEB-0675             
1 55834U 23029AQ  26154.48439611 -.00000003  00000+0 -38806-4 0  9998
2 55834  87.9157 307.7084 0001930 105.8365 254.2980 13.19727388157118
ONEWEB-0720             
1 55835U 23029AR  26154.47649202  .00000006  00000+0 -16971-4 0  9998
2 55835  87.9162 307.7110 0001553 107.6174 252.5128 13.19726764157037
ONEWEB-0537             
1 56046U 23043A   26154.59114248  .00000069  00000+0  14759-3 0  9998
2 56046  87.9107 231.4707 0002210 104.1348 256.0029 13.16593697157170
ONEWEB-0538             
1 56047U 23043B   26154.58481117  .00000194  00000+0  47340-3 0  9991
2 56047  87.9097 231.4764 0001949 107.0666 253.0679 13.16594053157181
ONEWEB-0546             
1 56048U 23043C   26154.57214791 -.00000033  00000+0 -11876-3 0  9992
2 56048  87.9105 231.4771 0002649 105.8418 254.3005 13.16593502157173
ONEWEB-0547             
1 56049U 23043D   26154.62276424  .00000271  00000+0  62346-3 0  9990
2 56049  87.9262 246.6724 0001872 104.5947 255.5394 13.21826657156432
ONEWEB-0548             
1 56050U 23043E   26154.59668513  .00000093  00000+0  21079-3 0  9992
2 56050  87.9104 231.4687 0002225  87.9917 272.1469 13.16595225157171
ONEWEB-0549             
1 56051U 23043F   26154.61688460 -.00000075  00000+0 -21224-3 0  9993
2 56051  87.9257 246.6806 0001860 110.4910 249.6424 13.21824034156438
ONEWEB-0550             
1 56052U 23043G   26154.30065263  .00000076  00000+0  15313-3 0  9991
2 56052  87.9258 246.7408 0002036  94.9760 265.1607 13.21825109156399
ONEWEB-0551             
1 56053U 23043H   26154.31280080 -.00000046  00000+0 -15637-3 0  9997
2 56053  87.8997 261.9909 0001740 112.7691 247.3623 13.15548304154577
ONEWEB-0552             
1 56054U 23043J   26154.29560103  .00000107  00000+0  22659-3 0  9990
2 56054  87.9257 246.7481 0001839  96.6213 263.5131 13.21827794156399
ONEWEB-0553             
1 56055U 23043K   26154.57847487  .00000024  00000+0  28180-4 0  9999
2 56055  87.9105 231.4767 0002488 101.9137 258.2273 13.16593314157184
ONEWEB-0554             
1 56056U 23043L   26154.26182513  .00000081  00000+0  17788-3 0  9992
2 56056  87.9102 231.5483 0002216  93.2358 266.9026 13.16594016157121
ONEWEB-0555             
1 56057U 23043M   26154.60380669  .00000450  00000+0  11434-2 0  9994
2 56057  87.9107 231.4680 0002608 105.9199 254.2220 13.16594322157175
ONEWEB-0557             
1 56058U 23043N   26154.61805207 -.00000065  00000+0 -20343-3 0  9990
2 56058  87.9104 231.4753 0003172  85.8871 274.2622 13.16593525157176
ONEWEB-0558             
1 56059U 23043P   26154.28886759  .00000090  00000+0  18746-3 0  9995
2 56059  87.9258 246.7437 0001937 109.0233 251.1111 13.21826736156404
ONEWEB-0559             
1 56060U 23043Q   26154.27708641  .00000122  00000+0  26469-3 0  9996
2 56060  87.9258 246.7402 0001790 102.5011 257.6324 13.21826587156419
ONEWEB-0566             
1 56061U 23043R   26154.27037199  .00000080  00000+0  16163-3 0  9993
2 56061  87.9258 246.7399 0001687 104.7467 255.3854 13.21825871156394
ONEWEB-0568             
1 56062U 23043S   26154.63547412  .00000004  00000+0 -23885-4 0  9995
2 56062  87.9105 231.4622 0002373 102.5521 257.5875 13.16593264157194
ONEWEB-0574             
1 56063U 23043T   26154.26363384  .00000059  00000+0  11156-3 0  9995
2 56063  87.9267 246.7429 0002148  95.7800 264.3579 13.21826569156437
ONEWEB-0575             
1 56064U 23043U   26154.62914106 -.00000048  00000+0 -15894-3 0  9993
2 56064  87.9102 231.4596 0002446  92.3346 267.8065 13.16593570157189
ONEWEB-0576             
1 56065U 23043V   26154.61013331  .00000014  00000+0  32871-5 0  9990
2 56065  87.9108 231.4704 0002240  95.9159 264.2227 13.16593459157176
ONEWEB-0577             
1 56066U 23043W   26154.61646951  .00000006  00000+0 -17097-4 0  9995
2 56066  87.9106 231.4668 0002612  85.2698 274.8731 13.16593010157201
